start=new Date('2023-03-02T00:00:00.000Z').valueOf();
sats=[{"OBJECT_TYPE":"PAYLOAD","LAUNCH_DATE":"2023-01-19","BSTAR":"0.00027460000000","PERIAPSIS":"356.900","INCLINATION":"70.0015","MEAN_MOTION_DDOT":"0.0000000000000","APOAPSIS":"361.050","TLE_LINE2":"2 55270  70.0015 312.7572 0003080 258.6801 101.4048 15.69973472  7314","ECCENTRICITY":"0.00030800","TLE_LINE1":"1 55270U 23010B   23060.85158516  .00033002  00000-0  27460-3 0  9995","GP_ID":"227322410","SEMIMAJOR_AXIS":"6737.110","FILE":"3848834","CENTER_NAME":"EARTH","EPOCH":"2023-03-01T20:26:16.957824","RCS_SIZE":"LARGE","MEAN_ANOMALY":"101.4048","TIME_SYSTEM":"UTC","SITE":"AFWTR","ARG_OF_PERICENTER":"258.6801","PERIOD":"91.721","COUNTRY_CODE":"US","EPHEMERIS_TYPE":"0","DECAY_DATE":null,"MEAN_MOTION":"15.69973472","MEAN_ELEMENT_THEORY":"SGP4","ELEMENT_SET_NO":"999","OBJECT_NAME":"STARLINK-5301","MEAN_MOTION_DOT":"0.00033002","REV_AT_EPOCH":"731","RA_OF_ASC_NODE":"312.7572","NORAD_CAT_ID":"55270","REF_FRAME":"TEME","OBJECT_ID":"2023-010B","CLASSIFICATION_TYPE":"U"},{"CENTER_NAME":"EARTH","FILE":"3848834","EPOCH":"2023-03-01T20:25:59.733120","SEMIMAJOR_AXIS":"6737.532","GP_ID":"227321162","TLE_LINE1":"1 55271U 23010C   23060.85138580 -.00038354  00000-0 -31992-3 0  9997","TLE_LINE2":"2 55271  70.0003 312.7581 0003811 272.5326  87.5433 15.69825810  7315","APOAPSIS":"361.965","ECCENTRICITY":"0.00038110","MEAN_MOTION_DDOT":"0.0000000000000","INCLINATION":"70.0003","LAUNCH_DATE":"2023-01-19","OBJECT_TYPE":"PAYLOAD","PERIAPSIS":"356.830","BSTAR":"-0.00031992000000","REV_AT_EPOCH":"731","CLASSIFICATION_TYPE":"U","OBJECT_ID":"2023-010C","NORAD_CAT_ID":"55271","RA_OF_ASC_NODE":"312.7581","REF_FRAME":"TEME","OBJECT_NAME":"STARLINK-5306","ELEMENT_SET_NO":"999","MEAN_MOTION_DOT":"-0.00038354","MEAN_MOTION":"15.69825810","DECAY_DATE":null,"MEAN_ELEMENT_THEORY":"SGP4","EPHEMERIS_TYPE":"0","PERIOD":"91.730","COUNTRY_CODE":"US","SITE":"AFWTR","ARG_OF_PERICENTER":"272.5326","MEAN_ANOMALY":"87.5433","RCS_SIZE":"LARGE","TIME_SYSTEM":"UTC"},{"MEAN_MOTION":"15.69945767","DECAY_DATE":null,"MEAN_ELEMENT_THEORY":"SGP4","EPHEMERIS_TYPE":"0","REV_AT_EPOCH":"731","NORAD_CAT_ID":"55272","REF_FRAME":"TEME","RA_OF_ASC_NODE":"312.7580","OBJECT_ID":"2023-010D","CLASSIFICATION_TYPE":"U","ELEMENT_SET_NO":"999","OBJECT_NAME":"STARLINK-5310","MEAN_MOTION_DOT":"0.00012534","ARG_OF_PERICENTER":"264.8795","SITE":"AFWTR","RCS_SIZE":"LARGE","MEAN_ANOMALY":"95.1980","TIME_SYSTEM":"UTC","PERIOD":"91.723","COUNTRY_CODE":"US","GP_ID":"227321412","APOAPSIS":"361.537","TLE_LINE2":"2 55272  70.0005 312.7580 0003686 264.8795  95.1980 15.69945767  7317","ECCENTRICITY":"0.00036860","TLE_LINE1":"1 55272U 23010D   23060.85169013  .00012534  00000-0  10575-3 0  9997","FILE":"3848834","CENTER_NAME":"EARTH","EPOCH":"2023-03-01T20:26:26.027232","SEMIMAJOR_AXIS":"6737.189","OBJECT_TYPE":"PAYLOAD","LAUNCH_DATE":"2023-01-19","BSTAR":"0.00010575000000","PERIAPSIS":"356.571","MEAN_MOTION_DDOT":"0.0000000000000","INCLINATION":"70.0005"},{"ELEMENT_SET_NO":"999","OBJECT_NAME":"STARLINK-5291","MEAN_MOTION_DOT":"-0.00003541","REV_AT_EPOCH":"731","NORAD_CAT_ID":"55273","RA_OF_ASC_NODE":"312.7567","REF_FRAME":"TEME","OBJECT_ID":"2023-010E","CLASSIFICATION_TYPE":"U","EPHEMERIS_TYPE":"0","DECAY_DATE":null,"MEAN_MOTION":"15.69896292","MEAN_ELEMENT_THEORY":"SGP4","PERIOD":"91.726","COUNTRY_CODE":"US","RCS_SIZE":"LARGE","MEAN_ANOMALY":"103.6089","TIME_SYSTEM":"UTC","ARG_OF_PERICENTER":"256.4684","SITE":"AFWTR","SEMIMAJOR_AXIS":"6737.331","FILE":"3848834","CENTER_NAME":"EARTH","EPOCH":"2023-03-01T20:25:32.437632","TLE_LINE2":"2 55273  69.9995 312.7567 0003799 256.4684 103.6089 15.69896292  7310","APOAPSIS":"361.755","ECCENTRICITY":"0.00037990","TLE_LINE1":"1 55273U 23010E   23060.85106988 -.00003541  00000-0 -27723-4 0  9994","GP_ID":"227322163","INCLINATION":"69.9995","MEAN_MOTION_DDOT":"0.0000000000000","OBJECT_TYPE":"PAYLOAD","LAUNCH_DATE":"2023-01-19","BSTAR":"-0.00002772300000","PERIAPSIS":"356.636"},{"MEAN_MOTION_DDOT":"0.0000000000000","INCLINATION":"70.0019","LAUNCH_DATE":"2023-01-19","OBJECT_TYPE":"PAYLOAD","PERIAPSIS":"357.095","BSTAR":"0.00019889000000","CENTER_NAME":"EARTH","FILE":"3848834","EPOCH":"2023-03-01T20:25:22.499040","SEMIMAJOR_AXIS":"6737.156","GP_ID":"227322910","TLE_LINE1":"1 55274U 23010F   23060.85095485  .00023801  00000-0  19889-3 0  9996","TLE_LINE2":"2 55274  70.0019 312.7547 0002859 262.2405  97.8467 15.69957462  7312","APOAPSIS":"360.947","ECCENTRICITY":"0.00028590","PERIOD":"91.722","COUNTRY_CODE":"US","ARG_OF_PERICENTER":"262.2405","SITE":"AFWTR","MEAN_ANOMALY":"97.8467","RCS_SIZE":"LARGE","TIME_SYSTEM":"UTC","REV_AT_EPOCH":"731","OBJECT_ID":"2023-010F","CLASSIFICATION_TYPE":"U","NORAD_CAT_ID":"55274","REF_FRAME":"TEME","RA_OF_ASC_NODE":"312.7547","OBJECT_NAME":"STARLINK-5236","ELEMENT_SET_NO":"999","MEAN_MOTION_DOT":"0.00023801","MEAN_MOTION":"15.69957462","DECAY_DATE":null,"MEAN_ELEMENT_THEORY":"SGP4","EPHEMERIS_TYPE":"0"},{"MEAN_ELEMENT_THEORY":"SGP4","MEAN_MOTION":"15.69965515","DECAY_DATE":null,"EPHEMERIS_TYPE":"0","REF_FRAME":"TEME","RA_OF_ASC_NODE":"312.7554","NORAD_CAT_ID":"55275","OBJECT_ID":"2023-010G","CLASSIFICATION_TYPE":"U","REV_AT_EPOCH":"731","MEAN_MOTION_DOT":"0.00024401","ELEMENT_SET_NO":"999","OBJECT_NAME":"STARLINK-5260","ARG_OF_PERICENTER":"251.0613","SITE":"AFWTR","TIME_SYSTEM":"UTC","RCS_SIZE":"LARGE","MEAN_ANOMALY":"109.0264","COUNTRY_CODE":"US","PERIOD":"91.722","GP_ID":"227321662","TLE_LINE2":"2 55275  70.0016 312.7554 0002943 251.0613 109.0264 15.69965515  7318","APOAPSIS":"360.980","ECCENTRICITY":"0.00029430","TLE_LINE1":"1 55275U 23010G   23060.85084463  .00024401  00000-0  20377-3 0  9992","EPOCH":"2023-03-01T20:25:12.976032","FILE":"3848834","CENTER_NAME":"EARTH","SEMIMAJOR_AXIS":"6737.133","BSTAR":"0.00020377000000","PERIAPSIS":"357.015","OBJECT_TYPE":"PAYLOAD","LAUNCH_DATE":"2023-01-19","MEAN_MOTION_DDOT":"0.0000000000000","INCLINATION":"70.0016"},{"MEAN_MOTION_DDOT":"0.0000000000000","INCLINATION":"70.0003","BSTAR":"0.00039562000000","PERIAPSIS":"356.170","OBJECT_TYPE":"PAYLOAD","LAUNCH_DATE":"2023-01-19","EPOCH":"2023-03-01T20:24:45.741024","FILE":"3848834","CENTER_NAME":"EARTH","SEMIMAJOR_AXIS":"6737.109","GP_ID":"227321912","TLE_LINE2":"2 55276  70.0003 312.7540 0004162 249.2851 110.7898 15.69973756  7305","ECCENTRICITY":"0.00041620","APOAPSIS":"361.778","TLE_LINE1":"1 55276U 23010H   23060.85052941  .00047734  00000-0  39562-3 0  9999","COUNTRY_CODE":"US","PERIOD":"91.721","ARG_OF_PERICENTER":"249.2851","SITE":"AFWTR","TIME_SYSTEM":"UTC","RCS_SIZE":"LARGE","MEAN_ANOMALY":"110.7898","RA_OF_ASC_NODE":"312.7540","REF_FRAME":"TEME","NORAD_CAT_ID":"55276","OBJECT_ID":"2023-010H","CLASSIFICATION_TYPE":"U","REV_AT_EPOCH":"730","MEAN_MOTION_DOT":"0.00047734","ELEMENT_SET_NO":"999","OBJECT_NAME":"STARLINK-5261","MEAN_ELEMENT_THEORY":"SGP4","DECAY_DATE":null,"MEAN_MOTION":"15.69973756","EPHEMERIS_TYPE":"0"},{"EPOCH":"2023-03-01T20:25:04.109664","FILE":"3848834","CENTER_NAME":"EARTH","SEMIMAJOR_AXIS":"6737.198","GP_ID":"227322663","TLE_LINE2":"2 55277  70.0000 312.7546 0004369 273.0781  86.9915 15.69942548  7315","APOAPSIS":"362.007","ECCENTRICITY":"0.00043690","TLE_LINE1":"1 55277U 23010J   23060.85074201  .00015560  00000-0  13081-3 0  9993","MEAN_MOTION_DDOT":"0.0000000000000","INCLINATION":"70.0000","BSTAR":"0.00013081000000","PERIAPSIS":"356.120","OBJECT_TYPE":"PAYLOAD","LAUNCH_DATE":"2023-01-19","REF_FRAME":"TEME","NORAD_CAT_ID":"55277","RA_OF_ASC_NODE":"312.7546","OBJECT_ID":"2023-010J","CLASSIFICATION_TYPE":"U","REV_AT_EPOCH":"731","MEAN_MOTION_DOT":"0.00015560","ELEMENT_SET_NO":"999","OBJECT_NAME":"STARLINK-5299","MEAN_ELEMENT_THEORY":"SGP4","MEAN_MOTION":"15.69942548","DECAY_DATE":null,"EPHEMERIS_TYPE":"0","COUNTRY_CODE":"US","PERIOD":"91.723","ARG_OF_PERICENTER":"273.0781","SITE":"AFWTR","TIME_SYSTEM":"UTC","RCS_SIZE":"LARGE","MEAN_ANOMALY":"86.9915"},{"REV_AT_EPOCH":"730","REF_FRAME":"TEME","RA_OF_ASC_NODE":"312.7525","NORAD_CAT_ID":"55278","OBJECT_ID":"2023-010K","CLASSIFICATION_TYPE":"U","ELEMENT_SET_NO":"999","OBJECT_NAME":"STARLINK-5289","MEAN_MOTION_DOT":"0.00017397","MEAN_MOTION":"15.69950041","DECAY_DATE":null,"MEAN_ELEMENT_THEORY":"SGP4","EPHEMERIS_TYPE":"0","PERIOD":"91.723","COUNTRY_CODE":"US","ARG_OF_PERICENTER":"233.3423","SITE":"AFWTR","RCS_SIZE":"LARGE","MEAN_ANOMALY":"126.7433","TIME_SYSTEM":"UTC","FILE":"3848834","CENTER_NAME":"EARTH","EPOCH":"2023-03-01T20:24:18.448128","SEMIMAJOR_AXIS":"6737.177","GP_ID":"227322411","TLE_LINE2":"2 55278  70.0015 312.7525 0003696 233.3423 126.7433 15.69950041  7307","APOAPSIS":"361.532","ECCENTRICITY":"0.00036960","TLE_LINE1":"1 55278U 23010K   23060.85021352  .00017397  00000-0  14599-3 0  9998","MEAN_MOTION_DDOT":"0.0000000000000","INCLINATION":"70.0015","OBJECT_TYPE":"PAYLOAD","LAUNCH_DATE":"2023-01-19","BSTAR":"0.00014599000000","PERIAPSIS":"356.552"},{"ECCENTRICITY":"0.00039920","TLE_LINE2":"2 55279  70.0005 312.7536 0003992 262.1535  97.9208 15.69966826  7310","APOAPSIS":"361.683","TLE_LINE1":"1 55279U 23010L   23060.85063185  .00028210  00000-0  23515-3 0  9993","GP_ID":"227321163","SEMIMAJOR_AXIS":"6737.129","EPOCH":"2023-03-01T20:24:54.591840","FILE":"3848834","CENTER_NAME":"EARTH","BSTAR":"0.00023515000000","PERIAPSIS":"356.304","OBJECT_TYPE":"PAYLOAD","LAUNCH_DATE":"2023-01-19","INCLINATION":"70.0005","MEAN_MOTION_DDOT":"0.0000000000000","EPHEMERIS_TYPE":"0","MEAN_ELEMENT_THEORY":"SGP4","MEAN_MOTION":"15.69966826","DECAY_DATE":null,"MEAN_MOTION_DOT":"0.00028210","ELEMENT_SET_NO":"999","OBJECT_NAME":"STARLINK-5323","RA_OF_ASC_NODE":"312.7536","REF_FRAME":"TEME","NORAD_CAT_ID":"55279","OBJECT_ID":"2023-010L","CLASSIFICATION_TYPE":"U","REV_AT_EPOCH":"731","TIME_SYSTEM":"UTC","RCS_SIZE":"LARGE","MEAN_ANOMALY":"97.9208","SITE":"AFWTR","ARG_OF_PERICENTER":"262.1535","COUNTRY_CODE":"US","PERIOD":"91.722"}];
